NORAD_CAT_ID,OBJECT_NAME,OBJECT_TYPE,EPOCH,MEAN_MOTION,ECCENTRICITY,INCLINATION,RA_OF_ASC_NODE,ARG_OF_PERICENTER,MEAN_ANOMALY,BSTAR,MEAN_MOTION_DOT,MEAN_MOTION_DDOT,TLE_LINE0,TLE_LINE1,TLE_LINE2,SEMIMAJOR_AXIS,PERIOD,APOGEE,PERIGEE,DECAYED
52124.0,STARLINK-3684,PAYLOAD,2023-09-12 02:32:40,15.0884224,0.0001185,53.2167,202.4021,87.7904,272.3224,8.2457e-05,1.025e-05,0.0,0 STARLINK-3684,1 52124U 22029AN  23255.10602420  .00001025  00000-0  82457-4 0  9999,2 52124  53.2167 202.4021 0001185  87.7904 272.3224 15.08842240 83479,6917.874,95.437,540.558,538.919,0.0
52124.0,STARLINK-3684,PAYLOAD,2023-09-12 05:43:26,15.08845482,0.0001275,53.2172,201.8075,97.0451,263.0686,0.00010848,1.439e-05,0.0,0 STARLINK-3684,1 52124U 22029AN  23255.23850162  .00001439  00000-0  10848-3 0  9994,2 52124  53.2172 201.8075 0001275  97.0451 263.0686 15.08845482 83490,6917.864,95.437,540.611,538.847,0.0
52124.0,STARLINK-3684,PAYLOAD,2023-09-13 03:58:49,15.08857258,0.0001348,53.2173,197.6445,85.8761,274.2385,0.00021668,3.164e-05,0.0,0 STARLINK-3684,1 52124U 22029AN  23256.16585306  .00003164  00000-0  21668-3 0  9991,2 52124  53.2173 197.6445 0001348  85.8761 274.2385 15.08857258 83634,6917.828,95.436,540.625,538.76,0.0
52124.0,STARLINK-3684,PAYLOAD,2023-09-13 19:52:42,15.08836584,0.0001427,53.2188,194.669,98.9339,261.1815,-1.846e-05,-5.82e-06,0.0,0 STARLINK-3684,1 52124U 22029AN  23256.82827159 -.00000582  00000-0 -18460-4 0  9999,2 52124  53.2188 194.6690 0001427  98.9339 261.1815 15.08836584 83736,6917.891,95.438,540.743,538.769,0.0
52124.0,STARLINK-3684,PAYLOAD,2023-09-14 02:14:15,15.08837712,0.0001424,53.2181,193.4803,101.2296,258.8856,-8.4487e-06,-4.22e-06,0.0,0 STARLINK-3684,1 52124U 22029AN  23257.09323075 -.00000422  00000-0 -84487-5 0  9993,2 52124  53.2181 193.4803 0001424 101.2296 258.8856 15.08837712 83775,6917.887,95.438,540.737,538.767,0.0
52124.0,STARLINK-3684,PAYLOAD,2023-09-14 05:25:01,15.08840062,0.0001391,53.2175,192.8849,109.1845,250.9298,1.2784e-05,-8.4e-07,0.0,0 STARLINK-3684,1 52124U 22029AN  23257.22570826 -.00000084  00000-0  12784-4 0  9999,2 52124  53.2175 192.8849 0001391 109.1845 250.9298 15.08840062 83798,6917.88,95.438,540.707,538.783,0.0
52124.0,STARLINK-3684,PAYLOAD,2023-09-15 02:05:01,15.08855388,0.0001429,53.2171,189.0193,102.6869,257.4283,2.0896e-06,-2.55e-06,0.0,0 STARLINK-3684,1 52124U 22029AN  23258.08681977 -.00000255  00000-0  20896-5 0  9998,2 52124  53.2171 189.0193 0001429 102.6869 257.4283 15.08855388 83928,6917.833,95.437,540.687,538.71,0.0
52124.0,STARLINK-3684,PAYLOAD,2023-09-15 05:15:47,15.08862038,0.00014,53.2171,188.4243,100.0685,260.0465,-3.7814e-05,-8.9e-06,0.0,0 STARLINK-3684,1 52124U 22029AN  23258.21929605 -.00000890  00000-0 -37814-4 0  9999,2 52124  53.2171 188.4243 0001400 100.0685 260.0465 15.08862038 83948,6917.813,95.436,540.647,538.71,0.0
52124.0,STARLINK-3684,PAYLOAD,2023-09-16 01:55:48,15.08844366,0.000138,53.2172,184.5589,104.9294,255.1851,0.00013453,1.854e-05,0.0,0 STARLINK-3684,1 52124U 22029AN  23259.08042215  .00001854  00000-0  13453-3 0  9999,2 52124  53.2172 184.5589 0001380 104.9294 255.1851 15.08844366 84078,6917.867,95.437,540.687,538.777,0.0
52124.0,STARLINK-3684,PAYLOAD,2023-09-16 03:31:11,15.08846239,0.0001438,53.2176,184.2615,105.2218,254.8933,0.00015348,2.156e-05,0.0,0 STARLINK-3684,1 52124U 22029AN  23259.14666109  .00002156  00000-0  15348-3 0  9991,2 52124  53.2176 184.2615 0001438 105.2218 254.8933 15.08846239 84082,6917.861,95.437,540.721,538.732,0.0
52124.0,STARLINK-3684,PAYLOAD,2023-09-17 01:46:36,15.08843099,0.0001369,53.2174,180.0997,101.1925,258.9221,-3.0819e-05,-7.78e-06,0.0,0 STARLINK-3684,1 52124U 22029AN  23260.07402814 -.00000778  00000-0 -30819-4 0  9997,2 52124  53.2174 180.0997 0001369 101.1925 258.9221 15.08843099 84222,6917.871,95.437,540.683,538.789,0.0
52124.0,STARLINK-3684,PAYLOAD,2023-09-17 03:21:59,15.08843674,0.0001345,53.2176,179.8046,100.8583,259.2561,3.3921e-06,-2.34e-06,0.0,0 STARLINK-3684,1 52124U 22029AN  23260.14026758 -.00000234  00000-0  33921-5 0  9998,2 52124  53.2176 179.8046 0001345 100.8583 259.2561 15.08843674 84236,6917.869,95.437,540.665,538.804,0.0
52124.0,STARLINK-3684,PAYLOAD,2023-09-18 04:48:08,15.08847839,0.0001281,53.2173,175.0453,99.488,260.6257,0.00017394,2.482e-05,0.0,0 STARLINK-3684,1 52124U 22029AN  23261.20010031  .00002482  00000-0  17394-3 0  9993,2 52124  53.2173 175.0453 0001281  99.4880 260.6257 15.08847839 84397,6917.856,95.437,540.608,538.835,0.0
52124.0,STARLINK-3684,PAYLOAD,2023-09-20 04:29:41,15.08867311,0.0001339,53.2162,166.1231,110.0596,250.0541,0.00023675,3.485e-05,0.0,0 STARLINK-3684,1 52124U 22029AN  23263.18728528  .00003485  00000-0  23675-3 0  9992,2 52124  53.2162 166.1231 0001339 110.0596 250.0541 15.08867311 84697,6917.797,95.436,540.588,538.736,0.0
52124.0,STARLINK-3684,PAYLOAD,2023-09-20 10:51:16,15.08834011,0.0002266,53.2175,164.9297,92.8452,267.28,-0.00040791,-6.774e-05,0.0,0 STARLINK-3684,1 52124U 22029AN  23263.45227450 -.00006774  00000-0 -40791-3 0  9994,2 52124  53.2175 164.9297 0002266  92.8452 267.2800 15.08834011 84731,6917.899,95.438,541.331,538.196,0.0
52124.0,STARLINK-3684,PAYLOAD,2023-09-20 21:59:00,15.08823471,0.000147,53.2172,162.8541,100.5467,259.5691,-0.00030157,-5.082e-05,0.0,0 STARLINK-3684,1 52124U 22029AN  23263.91597586 -.00005082  00000-0 -30157-3 0  9991,2 52124  53.2172 162.8541 0001470 100.5467 259.5691 15.08823471 84804,6917.931,95.439,540.813,538.779,0.0
52124.0,STARLINK-3684,PAYLOAD,2023-09-21 01:09:46,15.08826658,0.0001427,53.2173,162.2564,104.7415,255.3735,-0.00027156,-4.606e-05,0.0,0 STARLINK-3684,1 52124U 22029AN  23264.04845353 -.00004606  00000-0 -27156-3 0  9990,2 52124  53.2173 162.2564 0001427 104.7415 255.3735 15.08826658 84820,6917.921,95.438,540.773,538.799,0.0
52124.0,STARLINK-3684,PAYLOAD,2023-09-21 02:45:09,15.08827239,0.0001418,53.2172,161.9584,107.1597,252.955,-0.00025704,-4.375e-05,0.0,0 STARLINK-3684,1 52124U 22029AN  23264.11469304 -.00004375  00000-0 -25704-3 0  9996,2 52124  53.2172 161.9584 0001418 107.1597 252.9550 15.08827239 84830,6917.919,95.438,540.765,538.803,0.0
52124.0,STARLINK-3684,PAYLOAD,2023-09-21 17:03:36,15.08835929,0.0001377,53.2162,159.2832,101.2025,258.9122,-6.9349e-05,-1.391e-05,0.0,0 STARLINK-3684,1 52124U 22029AN  23264.71083943 -.00001391  00000-0 -69349-4 0  9992,2 52124  53.2162 159.2832 0001377 101.2025 258.9122 15.08835929 84926,6917.893,95.438,540.71,538.805,0.0
52124.0,STARLINK-3684,PAYLOAD,2023-09-21 21:49:45,15.08839414,0.0001224,53.2148,158.3972,91.555,268.5583,2.3787e-05,9.1e-07,0.0,0 STARLINK-3684,1 52124U 22029AN  23264.90955808  .00000091  00000-0  23787-4 0  9991,2 52124  53.2148 158.3972 0001224  91.5550 268.5583 15.08839414 84954,6917.882,95.438,540.594,538.9,0.0
52124.0,STARLINK-3684,PAYLOAD,2023-09-22 02:35:54,15.08852966,0.0001547,53.216,157.4982,111.41,248.7057,0.00025379,3.755e-05,0.0,0 STARLINK-3684,1 52124U 22029AN  23265.10827174  .00003755  00000-0  25379-3 0  9996,2 52124  53.2160 157.4982 0001547 111.4100 248.7057 15.08852966 84986,6917.841,95.437,540.776,538.636,0.0
52124.0,STARLINK-3684,PAYLOAD,2023-09-22 21:40:32,15.08849938,0.0001372,53.216,153.9334,70.6612,289.4529,0.00063224,9.791e-05,0.0,0 STARLINK-3684,1 52124U 22029AN  23265.90315644  .00009791  00000-0  63224-3 0  9995,2 52124  53.2160 153.9334 0001372  70.6612 289.4529 15.08849938 85104,6917.85,95.437,540.664,538.766,0.0
52124.0,STARLINK-3684,PAYLOAD,2023-09-23 02:26:41,15.088691,0.0001239,53.2155,153.0389,88.5121,271.6013,0.00068011,0.00010561,0.0,0 STARLINK-3684,1 52124U 22029AN  23266.10186692  .00010561  00000-0  68011-3 0  9993,2 52124  53.2155 153.0389 0001239  88.5121 271.6013 15.08869100 85131,6917.791,95.436,540.514,538.799,0.0
52124.0,STARLINK-3684,PAYLOAD,2023-09-23 16:45:10,15.08837399,0.0001131,53.2154,150.3609,108.9444,251.1671,-0.00030628,-5.159e-05,0.0,0 STARLINK-3684,1 52124U 22029AN  23266.69803307 -.00005159  00000-0 -30628-3 0  9998,2 52124  53.2154 150.3609 0001131 108.9444 251.1671 15.08837399 85229,6917.888,95.438,540.536,538.971,0.0
52124.0,STARLINK-3684,PAYLOAD,2023-09-24 02:17:29,15.0883898,0.0001298,53.2159,148.5785,105.0271,255.0865,-0.00014593,-2.61e-05,0.0,0 STARLINK-3684,1 52124U 22029AN  23267.09547471 -.00002610  00000-0 -14593-3 0  9992,2 52124  53.2159 148.5785 0001298 105.0271 255.0865 15.08838980 85289,6917.884,95.438,540.646,538.851,0.0
52124.0,STARLINK-3684,PAYLOAD,2023-09-24 19:46:43,15.08835381,0.000127,53.2158,145.3068,109.8621,250.2508,-7.3871e-05,-1.463e-05,0.0,0 STARLINK-3684,1 52124U 22029AN  23267.82411966 -.00001463  00000-0 -73871-4 0  9992,2 52124  53.2158 145.3068 0001270 109.8621 250.2508 15.08835381 85393,6917.895,95.438,540.638,538.881,0.0
52124.0,STARLINK-3684,PAYLOAD,2023-09-24 21:22:07,15.08836031,0.0001276,53.2161,145.0099,105.923,254.1903,-4.0076e-05,-9.26e-06,0.0,0 STARLINK-3684,1 52124U 22029AN  23267.89035989 -.00000926  00000-0 -40076-4 0  9990,2 52124  53.2161 145.0099 0001276 105.9230 254.1903 15.08836031 85404,6917.893,95.438,540.64,538.875,0.0
52124.0,STARLINK-3684,PAYLOAD,2023-09-25 08:29:48,15.08849889,0.0001245,53.2162,142.9285,110.8112,249.3013,0.00038052,5.775e-05,0.0,0 STARLINK-3684,1 52124U 22029AN  23268.35403688  .00005775  00000-0  38052-3 0  9992,2 52124  53.2162 142.9285 0001245 110.8112 249.3013 15.08849889 85478,6917.85,95.437,540.576,538.854,0.0
52124.0,STARLINK-3684,PAYLOAD,2023-09-25 21:12:53,15.08855279,0.0001158,53.2157,140.5506,106.8396,253.2724,0.00055346,8.535e-05,0.0,0 STARLINK-3684,1 52124U 22029AN  23268.88395625  .00008535  00000-0  55346-3 0  9993,2 52124  53.2157 140.5506 0001158 106.8396 253.2724 15.08855279 85556,6917.834,95.437,540.5,538.898,0.0
52124.0,STARLINK-3684,PAYLOAD,2023-09-26 21:03:41,15.08841916,0.0001162,53.2153,136.0908,103.6983,256.4139,0.0001009,1.318e-05,0.0,0 STARLINK-3684,1 52124U 22029AN  23269.87755919  .00001318  00000-0  10090-3 0  9998,2 52124  53.2153 136.0908 0001162 103.6983 256.4139 15.08841916 85705,6917.875,95.437,540.543,538.936,0.0
